GLOBALSTAR M084 [+]     
1 38040U 11080A   24051.78619987 -.00000085  00000+0  10728-3 0  9996
2 38040  52.0008  77.0779 0000650  95.2946  77.7447 12.62271186561740
GLOBALSTAR M080 [+]     
1 38041U 11080B   24051.83874200 -.00000087  00000+0  91123-4 0  9995
2 38041  52.0059  78.3563 0000665  78.0753  93.1771 12.62269231562014
GLOBALSTAR M082 [+]     
1 38042U 11080C   24051.69348912 -.00000098  00000+0  30827-4 0  9992
2 38042  52.0093  34.1920 0000505 180.2945 351.0356 12.62266057562560
GLOBALSTAR M092 [+]     
1 38043U 11080D   24051.90487719 -.00000101  00000+0  13430-4 0  9992
2 38043  52.0079 123.9033 0000862 115.5069  55.6410 12.62276669561041
GLOBALSTAR M090 [+]     
1 38044U 11080E   24051.92364740 -.00000096  00000+0  40571-4 0  9992
2 38044  51.9906  27.9203 0000198 138.8077 239.8566 12.62266284562715
GLOBALSTAR M086 [+]     
1 38045U 11080F   24051.66692043 -.00000095  00000+0  50528-4 0  9996
2 38045  51.9918  29.2168 0000874 348.7323 182.0614 12.62267373562624
GLOBALSTAR M097 [+]     
1 39072U 13005A   24051.89322050 -.00000072  00000+0  17998-3 0  9997
2 39072  52.0054 302.5880 0000483  57.2231 302.8682 12.62260827509908
GLOBALSTAR M093 [+]     
1 39073U 13005B   24051.94587432 -.00000065  00000+0  21366-3 0  9997
2 39073  51.9813 296.5021 0000429  48.7468 311.3436 12.62261337509860
